{
    "week": 293,
    "satellites": [
        {
            "Name": "BEIDOU-3 M28 (C50)",
            "Line1": "1 58654U 23207A   24323.68343039 -.00000029  00000+0  00000+0 0  9992",
            "Line2": "2 58654  55.2420  81.8037 0001659 234.8528 125.1068  1.86231973  6120",
            "SatelliteNumber": "58654",
            "Classification": "U",
            "LaunchYear": "23",
            "LaunchNumber": "207",
            "PieceOfLaunch": "A",
            "EpochYear": "24",
            "EpochDay": 323.68343039,
            "FirstDerivativeMeanMotion": -2.9e-07,
            "SecondDerivativeMeanMotion": "00000+0",
            "BSTAR": "00000+0",
            "SetNumber": "999",
            "Inclination": 55.242,
            "RAAN": 81.8037,
            "Eccentricity": 0.0001659,
            "ArgumentOfPerigee": 234.8528,
            "MeanAnomaly": 125.1068,
            "MeanMotion": 1.86231973,
            "RevolutionNumber": "612"
        },
        {
            "Name": "BEIDOU-3 M26 (C48)",
            "Line1": "1 58655U 23207B   24322.94577942 -.00000033  00000+0  00000+0 0  9998",
            "Line2": "2 58655  55.2432  81.8144 0003121 228.8679 131.0775  1.86231455  6091",
            "SatelliteNumber": "58655",
            "Classification": "U",
            "LaunchYear": "23",
            "LaunchNumber": "207",
            "PieceOfLaunch": "B",
            "EpochYear": "24",
            "EpochDay": 322.94577942,
            "FirstDerivativeMeanMotion": -3.3e-07,
            "SecondDerivativeMeanMotion": "00000+0",
            "BSTAR": "00000+0",
            "SetNumber": "999",
            "Inclination": 55.2432,
            "RAAN": 81.8144,
            "Eccentricity": 0.0003121,
            "ArgumentOfPerigee": 228.8679,
            "MeanAnomaly": 131.0775,
            "MeanMotion": 1.86231455,
            "RevolutionNumber": "609"
        }
    ]
}